{"type": "Feature", "properties": {"km": 1183.1, "name": "Rotterdam-Genoa"}, "geometry": {"type": "LineString", "coordinates": [[4.46748, 51.9243], [4.46755, 51.92432], [4.46913, 51.92464], [4.47122, 51.92507], [4.47305, 51.92561], [4.47449, 51.92591], [4.47462, 51.92593], [4.47598, 51.92605], [4.47603, 51.92606], [4.47646, 51.92608], [4.47658, 51.92609], [4.47732, 51.9261], [4.47845, 51.92602], [4.47861, 51.926], [4.47985, 51.92575], [4.48066, 51.92551], [4.48282, 51.92438], [4.49101, 51.91856], [4.50732, 51.9072], [4.51154, 51.90289], [4.51166, 51.90276], [4.51321, 51.90099], [4.5139, 51.90017], [4.51403, 51.90002], [4.51443, 51.89955], [4.51641, 51.89728], [4.51773, 51.8958], [4.5178, 51.89572], [4.5239, 51.88844], [4.52547, 51.88659], [4.53082, 51.88016], [4.53113, 51.87979], [4.53507, 51.87519], [4.53712, 51.87277], [4.53723, 51.87264], [4.5393, 51.87013], [4.54127, 51.8676], [4.54316, 51.86506], [4.54317, 51.86504], [4.54319, 51.86502], [4.54321, 51.865], [4.54322, 51.86498], [4.54324, 51.86497], [4.54327, 51.86493], [4.54329, 51.86491], [4.5433, 51.86489], [4.54332, 51.86487], [4.54333, 51.86485], [4.54335, 51.86483], [4.54336, 51.86482], [4.54338, 51.8648], [4.54339, 51.86478], [4.54341, 51.86476], [4.54342, 51.86475], [4.54344, 51.86473], [4.54345, 51.86471], [4.54347, 51.86469], [4.54348, 51.86468], [4.5435, 51.86466], [4.54351, 51.86464], [4.54353, 51.86462], [4.54355, 51.8646], [4.54356, 51.86458], [4.54358, 51.86457], [4.54359, 51.86455], [4.54361, 51.86453], [4.54362, 51.86451], [4.54364, 51.8645], [4.54365, 51.86448], [4.54367, 51.86446], [4.54368, 51.86444], [4.5437, 51.86442], [4.54371, 51.86441], [4.54373, 51.86439], [4.54374, 51.86437], [4.54376, 51.86435], [4.54377, 51.86433], [4.54379, 51.86432], [4.54381, 51.8643], [4.54382, 51.86428], [4.54439, 51.86361], [4.54502, 51.8629], [4.54758, 51.86016], [4.54786, 51.85985], [4.54973, 51.85771], [4.56012, 51.84921], [4.5648, 51.84676], [4.57346, 51.84251], [4.57675, 51.84001], [4.57963, 51.8369], [4.57977, 51.8367], [4.58098, 51.83479], [4.58184, 51.83296], [4.58231, 51.83158], [4.5832, 51.82827], [4.58323, 51.82815], [4.58429, 51.82415], [4.58433, 51.82398], [4.58438, 51.82379], [4.58447, 51.82344], [4.58454, 51.82319], [4.58455, 51.82313], [4.58528, 51.82036], [4.58531, 51.82024], [4.58599, 51.81769], [4.58685, 51.81455], [4.58715, 51.81336], [4.58723, 51.81302], [4.58736, 51.8006], [4.58732, 51.80023], [4.58699, 51.7971], [4.5869, 51.79634], [4.58667, 51.79397], [4.58666, 51.79386], [4.58656, 51.7929], [4.58654, 51.79271], [4.58631, 51.78993], [4.5863, 51.78974], [4.5863, 51.78679], [4.58631, 51.78668], [4.5867, 51.78357], [4.58675, 51.78334], [4.58684, 51.78288], [4.58687, 51.78277], [4.58752, 51.78036], [4.58756, 51.78025], [4.58894, 51.77684], [4.58903, 51.77663], [4.59136, 51.77264], [4.59557, 51.76753], [4.59567, 51.76743], [4.59775, 51.76539], [4.59793, 51.76521], [4.6001, 51.76317], [4.60038, 51.76291], [4.6043, 51.75921], [4.61196, 51.75229], [4.61366, 51.75081], [4.61388, 51.75062], [4.61725, 51.74769], [4.61736, 51.7476], [4.61861, 51.74651], [4.62436, 51.74153], [4.63603, 51.73033], [4.64064, 51.72389], [4.64726, 51.71386], [4.64904, 51.71116], [4.64918, 51.71094], [4.64959, 51.71032], [4.64983, 51.70995], [4.66845, 51.68176], [4.66869, 51.68138], [4.67004, 51.67933], [4.67127, 51.67746], [4.67504, 51.67189], [4.68086, 51.66352], [4.68186, 51.66209], [4.69846, 51.63851], [4.69916, 51.6375], [4.72202, 51.60298], [4.72238, 51.6021], [4.72313, 51.60003], [4.7233, 51.59948], [4.72356, 51.59861], [4.72414, 51.59627], [4.72431, 51.59539], [4.72477, 51.59211], [4.72485, 51.59138], [4.72525, 51.58755], [4.72527, 51.58735], [4.72703, 51.57953], [4.72711, 51.57927], [4.72719, 51.57896], [4.72737, 51.57829], [4.72741, 51.57814], [4.72766, 51.57727], [4.73213, 51.5669], [4.73224, 51.56672], [4.7338, 51.56416], [4.73409, 51.56369], [4.73585, 51.56075], [4.73612, 51.56026], [4.73919, 51.55315], [4.73944, 51.55238], [4.74255, 51.53225], [4.74271, 51.53098], [4.74276, 51.53064], [4.74287, 51.52971], [4.73944, 51.49798], [4.73837, 51.49528], [4.73453, 51.48571], [4.73078, 51.47815], [4.72976, 51.476], [4.71985, 51.45112], [4.71961, 51.45061], [4.71938, 51.45011], [4.71919, 51.44971], [4.70729, 51.42409], [4.70689, 51.42323], [4.70308, 51.41599], [4.70268, 51.41537], [4.68118, 51.39594], [4.68094, 51.39576], [4.68006, 51.39511], [4.67969, 51.39484], [4.63625, 51.35988], [4.63024, 51.3546], [4.61513, 51.34113], [4.615, 51.34104], [4.55419, 51.30806], [4.5537, 51.30784], [4.55245, 51.30729], [4.55183, 51.30701], [4.5216, 51.29182], [4.51112, 51.2835], [4.50877, 51.28094], [4.50297, 51.27519], [4.4957, 51.27036], [4.47689, 51.26742], [4.47257, 51.26794], [4.46498, 51.26874], [4.46405, 51.26874], [4.46115, 51.26861], [4.46026, 51.26856], [4.45907, 51.26849], [4.45857, 51.26847], [4.44269, 51.26742], [4.43633, 51.26651], [4.43162, 51.26468], [4.43012, 51.26354], [4.4299, 51.26332], [4.42915, 51.26245], [4.42722, 51.2587], [4.42639, 51.25661], [4.42618, 51.25583], [4.42593, 51.25489], [4.42563, 51.25377], [4.42554, 51.25341], [4.4249, 51.25101], [4.42446, 51.24777], [4.42458, 51.24565], [4.42462, 51.24504], [4.42466, 51.24444], [4.42496, 51.23944], [4.42504, 51.23841], [4.42521, 51.23602], [4.42524, 51.23571], [4.42526, 51.23543], [4.4253, 51.23494], [4.42542, 51.23322], [4.42546, 51.23261], [4.42125, 51.21796], [4.42119, 51.21722], [4.42192, 51.21174], [4.42194, 51.21168], [4.42217, 51.21113], [4.42351, 51.20898], [4.42435, 51.20804], [4.42487, 51.20746], [4.42492, 51.20741], [4.42647, 51.20566], [4.42936, 51.20239], [4.42946, 51.20227], [4.43029, 51.20133], [4.43037, 51.20125], [4.43107, 51.20051], [4.43145, 51.20015], [4.43164, 51.19996], [4.43199, 51.1996], [4.43231, 51.19926], [4.43257, 51.19895], [4.43351, 51.19775], [4.43422, 51.19684], [4.43486, 51.19608], [4.43756, 51.19311], [4.43774, 51.1929], [4.4414, 51.18878], [4.44278, 51.18725], [4.44723, 51.18234], [4.45064, 51.17852], [4.45206, 51.17686], [4.45267, 51.17607], [4.45369, 51.17466], [4.45573, 51.17129], [4.45639, 51.17011], [4.45695, 51.16911], [4.45796, 51.16729], [4.46104, 51.16157], [4.46241, 51.15913], [4.47077, 51.14419], [4.47083, 51.1441], [4.4933, 51.08919], [4.49336, 51.08896], [4.49431, 51.08624], [4.4947, 51.08526], [4.49604, 51.08057], [4.49605, 51.08038], [4.49545, 51.06057], [4.4954, 51.06032], [4.49487, 51.05732], [4.49485, 51.05721], [4.49282, 51.0459], [4.49281, 51.04584], [4.49203, 51.04147], [4.49197, 51.04113], [4.49128, 51.03823], [4.49126, 51.03815], [4.49118, 51.03781], [4.49087, 51.03641], [4.49026, 51.03046], [4.49027, 51.02995], [4.49027, 51.02978], [4.49027, 51.02867], [4.49027, 51.02832], [4.49029, 51.02756], [4.49027, 51.02651], [4.49028, 51.02599], [4.49021, 51.02694], [4.49008, 51.02556], [4.48927, 51.02305], [4.489, 51.02258], [4.48866, 51.02202], [4.4881, 51.02127], [4.48664, 51.01985], [4.48573, 51.01908], [4.4829, 51.01682], [4.48209, 51.01622], [4.48149, 51.01582], [4.48084, 51.01539], [4.47792, 51.01337], [4.47729, 51.01284], [4.47648, 51.01188], [4.47636, 51.01169], [4.476, 51.01105], [4.47573, 51.01039], [4.4756, 51.00997], [4.47546, 51.00925], [4.47545, 51.00917], [4.47544, 51.00908], [4.47579, 51.00591], [4.4763, 51.00062], [4.47624, 50.99999], [4.47582, 50.99589], [4.47581, 50.99572], [4.47535, 50.99123], [4.47532, 50.99097], [4.47513, 50.98944], [4.47492, 50.98853], [4.47482, 50.98817], [4.47469, 50.98775], [4.47338, 50.98361], [4.47331, 50.98339], [4.47201, 50.97995], [4.47191, 50.97973], [4.46886, 50.97427], [4.4688, 50.97417], [4.467, 50.97124], [4.46694, 50.97116], [4.46379, 50.96691], [4.46367, 50.96675], [4.46295, 50.96579], [4.46277, 50.96555], [4.45842, 50.95977], [4.45833, 50.95965], [4.45087, 50.94972], [4.45077, 50.9496], [4.44655, 50.94398], [4.44634, 50.9437], [4.44172, 50.93755], [4.44158, 50.93736], [4.43733, 50.93165], [4.43677, 50.93085], [4.43488, 50.92799], [4.4348, 50.92786], [4.43407, 50.92648], [4.43398, 50.92629], [4.42708, 50.91821], [4.42689, 50.91801], [4.42603, 50.9171], [4.42365, 50.91455], [4.42352, 50.91441], [4.42091, 50.91163], [4.42082, 50.91153], [4.41704, 50.90751], [4.41687, 50.90733], [4.41171, 50.90176], [4.41137, 50.90124], [4.4108, 50.89736], [4.41109, 50.89129], [4.39555, 50.88203], [4.39272, 50.88186], [4.38244, 50.87997], [4.38211, 50.87982], [4.38133, 50.87942], [4.37502, 50.87169], [4.37524, 50.87161], [4.37548, 50.87152], [4.3757, 50.87144], [4.37631, 50.87122], [4.37661, 50.87111], [4.38143, 50.86828], [4.38206, 50.86487], [4.37871, 50.85666], [4.37816, 50.85567], [4.37977, 50.85151], [4.38016, 50.85111], [4.38057, 50.85066], [4.38251, 50.84721], [4.38252, 50.84712], [4.38255, 50.84675], [4.38255, 50.84667], [4.37948, 50.84266], [4.37846, 50.84248], [4.37802, 50.84242], [4.37769, 50.84237], [4.37657, 50.84207], [4.37518, 50.84123], [4.37466, 50.84035], [4.37421, 50.8358], [4.37488, 50.83501], [4.37501, 50.83486], [4.37648, 50.83315], [4.37671, 50.83288], [4.37761, 50.83189], [4.38908, 50.8225], [4.38957, 50.82205], [4.39889, 50.8121], [4.39953, 50.81039], [4.3996, 50.81019], [4.40225, 50.80334], [4.40355, 50.80021], [4.40513, 50.79789], [4.4079, 50.79499], [4.408, 50.79488], [4.40997, 50.79279], [4.415, 50.78757], [4.4248, 50.78009], [4.42531, 50.77978], [4.42981, 50.777], [4.44336, 50.76862], [4.4439, 50.76832], [4.46282, 50.7617], [4.46361, 50.76145], [4.48085, 50.75274], [4.48123, 50.7524], [4.51209, 50.72767], [4.5138, 50.72649], [4.51581, 50.7251], [4.51694, 50.72432], [4.52638, 50.71725], [4.52651, 50.71714], [4.52976, 50.7144], [4.53156, 50.7129], [4.53591, 50.70925], [4.54403, 50.70171], [4.55092, 50.69203], [4.55623, 50.68696], [4.55832, 50.68499], [4.56228, 50.68124], [4.56256, 50.68099], [4.56871, 50.67403], [4.56961, 50.67198], [4.56972, 50.67164], [4.57011, 50.67046], [4.57083, 50.66838], [4.57202, 50.66518], [4.5721, 50.66497], [4.57447, 50.66114], [4.57605, 50.65946], [4.57896, 50.65713], [4.57909, 50.65705], [4.58563, 50.65338], [4.6021, 50.64421], [4.60708, 50.64144], [4.64843, 50.60909], [4.64855, 50.60898], [4.66707, 50.5925], [4.66718, 50.5924], [4.68876, 50.57303], [4.69536, 50.56766], [4.69671, 50.56681], [4.69687, 50.56671], [4.82024, 50.48839], [4.82091, 50.4882], [4.8314, 50.48454], [4.83355, 50.48267], [4.83419, 50.48166], [4.84581, 50.47138], [4.8501, 50.47072], [4.85158, 50.47046], [4.85377, 50.46997], [4.85508, 50.46964], [4.86252, 50.4694], [4.87144, 50.4691], [4.87459, 50.46814], [4.87819, 50.46631], [4.87851, 50.46603], [4.879, 50.46547], [4.87938, 50.46495], [4.88, 50.46406], [4.8806, 50.46296], [4.88066, 50.46281], [4.88074, 50.46259], [4.88042, 50.45558], [4.88039, 50.45538], [4.88122, 50.43151], [4.88195, 50.43078], [4.95459, 50.40515], [4.95476, 50.40512], [4.9631, 50.40439], [4.96434, 50.40433], [4.96878, 50.40414], [4.9695, 50.40411], [4.97471, 50.40388], [4.99713, 50.38504], [4.99745, 50.3844], [5.01454, 50.3736], [5.02675, 50.36704], [5.02706, 50.36697], [5.03291, 50.36596], [5.03755, 50.36515], [5.03768, 50.36513], [5.05645, 50.35752], [5.0565, 50.35741], [5.06106, 50.34404], [5.0611, 50.34393], [5.07399, 50.30907], [5.07672, 50.30725], [5.07681, 50.30719], [5.08721, 50.29913], [5.0878, 50.29758], [5.09288, 50.28905], [5.09373, 50.28574], [5.14895, 50.26312], [5.26442, 50.24864], [5.26456, 50.2486], [5.27095, 50.24568], [5.27105, 50.24561], [5.29641, 50.22805], [5.3072, 50.21819], [5.30727, 50.21812], [5.31533, 50.20993], [5.31447, 50.20346], [5.31159, 50.2004], [5.30529, 50.19372], [5.27077, 50.16647], [5.26673, 50.16027], [5.26481, 50.15536], [5.26883, 50.14998], [5.269, 50.1498], [5.27704, 50.13125], [5.29304, 50.12089], [5.2932, 50.12071], [5.29463, 50.11742], [5.28138, 50.09133], [5.28125, 50.09121], [5.26608, 50.06714], [5.25281, 50.05407], [5.25307, 50.05384], [5.25534, 50.05263], [5.25568, 50.05252], [5.25927, 50.05213], [5.26689, 50.0491], [5.26695, 50.04895], [5.28102, 50.02252], [5.28122, 50.02251], [5.29762, 50.01382], [5.29769, 50.01374], [5.30445, 50.00563], [5.30464, 50.0054], [5.31134, 49.99912], [5.31554, 49.99488], [5.32405, 49.98174], [5.35042, 49.93261], [5.35106, 49.93212], [5.36538, 49.92372], [5.36555, 49.92367], [5.3707, 49.92255], [5.38602, 49.91522], [5.3861, 49.91516], [5.38619, 49.91509], [5.38994, 49.91236], [5.39026, 49.91213], [5.40963, 49.88928], [5.44315, 49.864], [5.44804, 49.85887], [5.45795, 49.85065], [5.49856, 49.79374], [5.50586, 49.78112], [5.50589, 49.78098], [5.51114, 49.77479], [5.51124, 49.77472], [5.51235, 49.77393], [5.51253, 49.77379], [5.51639, 49.76854], [5.5165, 49.76835], [5.52581, 49.75023], [5.53352, 49.73592], [5.53577, 49.73378], [5.53591, 49.73365], [5.54394, 49.72261], [5.55986, 49.71909], [5.55996, 49.71907], [5.56065, 49.71898], [5.56077, 49.71897], [5.61612, 49.72029], [5.61641, 49.72029], [5.62921, 49.71911], [5.63837, 49.71654], [5.74666, 49.68992], [5.77573, 49.68983], [5.7947, 49.686], [5.79505, 49.68584], [5.79909, 49.68362], [5.8027, 49.68197], [5.80947, 49.68026], [5.813, 49.67928], [5.82042, 49.67571], [5.83254, 49.64971], [5.8341, 49.64823], [5.8383, 49.64533], [5.84182, 49.64326], [5.84465, 49.64191], [5.86826, 49.64404], [5.87362, 49.64401], [5.90421, 49.64386], [5.93505, 49.64105], [5.93526, 49.64098], [6.0821, 49.60369], [6.08303, 49.60328], [6.09507, 49.59903], [6.09615, 49.59873], [6.11734, 49.59619], [6.11774, 49.59614], [6.13192, 49.59607], [6.13223, 49.59639], [6.13198, 49.59605], [6.13275, 49.5968], [6.1332, 49.59729], [6.13295, 49.59681], [6.13273, 49.59651], [6.13213, 49.59509], [6.13226, 49.5936], [6.1325, 49.59297], [6.13549, 49.58538], [6.13461, 49.5837], [6.13373, 49.58241], [6.1319, 49.57991], [6.13123, 49.57908], [6.13096, 49.57875], [6.12982, 49.57712], [6.12923, 49.57622], [6.13886, 49.54934], [6.13868, 49.54915], [6.13515, 49.54508], [6.13509, 49.54499], [6.12793, 49.53709], [6.12771, 49.53692], [6.12039, 49.53137], [6.12019, 49.53126], [6.11356, 49.52814], [6.11265, 49.52787], [6.1066, 49.52633], [6.10583, 49.5259], [6.10577, 49.52586], [6.10571, 49.52582], [6.10456, 49.52476], [6.1045, 49.52469], [6.10349, 49.52318], [6.1033, 49.52285], [6.10224, 49.52009], [6.10219, 49.51961], [6.1021, 49.51906], [6.10208, 49.51899], [6.10186, 49.51811], [6.10126, 49.51565], [6.11085, 49.48528], [6.10784, 49.47205], [6.11053, 49.46444], [6.11062, 49.46433], [6.12769, 49.44216], [6.12767, 49.44211], [6.12809, 49.43396], [6.12905, 49.43271], [6.12912, 49.43263], [6.13093, 49.431], [6.14279, 49.42416], [6.14285, 49.42412], [6.1516, 49.41129], [6.15164, 49.41125], [6.1727, 49.39476], [6.17269, 49.39471], [6.17238, 49.39274], [6.17237, 49.3927], [6.17222, 49.37986], [6.17224, 49.3797], [6.17225, 49.37958], [6.17228, 49.37942], [6.17287, 49.37498], [6.17287, 49.37496], [6.17981, 49.36268], [6.17974, 49.36123], [6.17861, 49.35889], [6.17265, 49.35546], [6.17234, 49.35524], [6.17218, 49.35511], [6.17203, 49.355], [6.17167, 49.35473], [6.17083, 49.35421], [6.17012, 49.35377], [6.16532, 49.3511], [6.16371, 49.35012], [6.16256, 49.34928], [6.1625, 49.34924], [6.16129, 49.34836], [6.15978, 49.34671], [6.15946, 49.34619], [6.15058, 49.33101], [6.15054, 49.33095], [6.14918, 49.32866], [6.14914, 49.32859], [6.14905, 49.32154], [6.14916, 49.32117], [6.15035, 49.31822], [6.15038, 49.31815], [6.15745, 49.30064], [6.15747, 49.3006], [6.15839, 49.2984], [6.16357, 49.28662], [6.16358, 49.2866], [6.1677, 49.27718], [6.16769, 49.2771], [6.16756, 49.27626], [6.16746, 49.27559], [6.16242, 49.24276], [6.16241, 49.2427], [6.16168, 49.238], [6.16167, 49.23793], [6.1607, 49.23166], [6.16068, 49.23151], [6.15742, 49.20906], [6.15705, 49.20636], [6.15704, 49.20629], [6.15997, 49.18918], [6.15998, 49.18914], [6.16014, 49.17948], [6.16013, 49.17944], [6.15739, 49.16736], [6.15738, 49.16732], [6.15597, 49.15149], [6.15597, 49.15146], [6.15647, 49.14632], [6.16488, 49.13713], [6.16497, 49.13712], [6.16792, 49.13686], [6.16861, 49.13679], [6.1726, 49.13545], [6.17272, 49.13539], [6.17524, 49.13408], [6.1786, 49.13246], [6.18559, 49.12813], [6.18566, 49.12798], [6.18601, 49.12688], [6.18615, 49.12627], [6.18688, 49.12293], [6.18691, 49.12282], [6.18734, 49.11946], [6.18735, 49.1193], [6.18735, 49.11919], [6.1874, 49.11742], [6.18741, 49.11729], [6.18541, 49.11367], [6.18532, 49.1136], [6.18514, 49.11345], [6.18447, 49.11291], [6.1843, 49.11278], [6.1834, 49.11211], [6.18089, 49.11084], [6.18049, 49.11059], [6.1796, 49.11004], [6.17937, 49.1099], [6.17916, 49.10977], [6.17908, 49.10972], [6.1783, 49.10926], [6.17749, 49.10886], [6.17589, 49.10808], [6.17311, 49.10646], [6.17303, 49.1064], [6.17285, 49.10627], [6.17272, 49.10617], [6.17141, 49.10503], [6.17135, 49.10496], [6.18016, 49.0894], [6.18031, 49.0893], [6.1812, 49.0887], [6.18201, 49.08814], [6.19089, 49.08194], [6.19094, 49.08191], [6.19237, 49.08093], [6.1924, 49.08091], [6.1973, 49.07761], [6.19734, 49.07759], [6.20607, 49.07527], [6.20639, 49.07526], [6.22133, 49.07415], [6.22136, 49.07414], [6.22463, 49.07312], [6.22874, 49.0726], [6.2288, 49.07259], [6.23652, 49.07179], [6.23657, 49.07179], [6.23745, 49.0717], [6.24726, 49.06993], [6.2473, 49.06992], [6.25069, 49.06892], [6.25076, 49.0689], [6.25357, 49.06808], [6.25359, 49.06807], [6.25882, 49.06649], [6.25884, 49.06648], [6.27445, 49.0604], [6.27449, 49.0604], [6.311, 49.06341], [6.3279, 49.05502], [6.32792, 49.05499], [6.32913, 49.05206], [6.32916, 49.05201], [6.34056, 49.04427], [6.34061, 49.04426], [6.34883, 49.04248], [6.34889, 49.04247], [6.35509, 49.04142], [6.35516, 49.04141], [6.37407, 49.03587], [6.3741, 49.03584], [6.37605, 49.03325], [6.37606, 49.03322], [6.38656, 49.01811], [6.38661, 49.01808], [6.39047, 49.01594], [6.39051, 49.01592], [6.40728, 49.00995], [6.40732, 49.00994], [6.40845, 49.00952], [6.43966, 48.97881], [6.43973, 48.97874], [6.44966, 48.97026], [6.44976, 48.97021], [6.45279, 48.96907], [6.45287, 48.96905], [6.45442, 48.96871], [6.4545, 48.96869], [6.45801, 48.968], [6.46113, 48.96738], [6.46537, 48.96653], [6.47861, 48.95661], [6.48935, 48.94471], [6.48982, 48.94461], [6.50579, 48.9444], [6.50729, 48.94438], [6.5074, 48.94438], [6.54636, 48.94262], [6.54647, 48.9426], [6.55125, 48.94176], [6.5513, 48.94175], [6.58257, 48.93062], [6.58261, 48.9306], [6.60883, 48.91755], [6.60923, 48.91736], [6.61426, 48.91509], [6.6143, 48.91507], [6.6167, 48.91406], [6.61673, 48.91404], [6.65144, 48.90388], [6.65276, 48.90363], [6.66872, 48.9014], [6.66881, 48.90139], [6.70787, 48.8982], [6.70799, 48.89818], [6.73191, 48.89058], [6.73396, 48.88966], [6.75733, 48.87931], [6.76009, 48.87822], [6.77462, 48.87294], [6.77469, 48.87291], [6.77838, 48.87157], [6.77842, 48.87155], [6.79998, 48.86133], [6.80006, 48.86129], [6.80037, 48.86113], [6.80041, 48.86111], [6.80155, 48.86051], [6.80159, 48.86048], [6.8109, 48.85555], [6.81099, 48.8555], [6.81412, 48.85385], [6.81419, 48.85381], [6.82248, 48.84942], [6.82259, 48.84936], [6.86087, 48.83175], [6.86154, 48.83149], [6.90983, 48.81168], [6.90989, 48.81164], [6.91878, 48.80525], [6.9192, 48.80493], [6.92345, 48.80162], [6.92391, 48.80127], [6.93933, 48.78935], [6.93994, 48.78891], [6.94845, 48.78369], [6.94848, 48.78367], [6.95441, 48.78076], [6.95444, 48.78075], [6.9849, 48.77025], [6.985, 48.77022], [7.01344, 48.76783], [7.02041, 48.76777], [7.04954, 48.76661], [7.04962, 48.7666], [7.05608, 48.76595], [7.05662, 48.7659], [7.06367, 48.76518], [7.06964, 48.76456], [7.12717, 48.76832], [7.12728, 48.76834], [7.13929, 48.76987], [7.1397, 48.76992], [7.14383, 48.7704], [7.14389, 48.77041], [7.1456, 48.77059], [7.14574, 48.77061], [7.15123, 48.77116], [7.15134, 48.77117], [7.16906, 48.77286], [7.16998, 48.77295], [7.17013, 48.77296], [7.18161, 48.77405], [7.18219, 48.77411], [7.19718, 48.77567], [7.19724, 48.77568], [7.20029, 48.77601], [7.20034, 48.77601], [7.22768, 48.77894], [7.22779, 48.77895], [7.25201, 48.77879], [7.25265, 48.77872], [7.26338, 48.77713], [7.26417, 48.77698], [7.27894, 48.77458], [7.27902, 48.77457], [7.302, 48.77313], [7.30601, 48.77296], [7.32231, 48.77334], [7.37534, 48.78034], [7.38195, 48.7802], [7.38213, 48.7802], [7.3979, 48.77935], [7.39794, 48.77935], [7.40795, 48.77881], [7.40839, 48.77878], [7.41699, 48.77832], [7.42665, 48.77779], [7.42673, 48.77778], [7.43013, 48.77754], [7.43082, 48.77748], [7.45237, 48.77362], [7.45462, 48.77297], [7.46019, 48.77114], [7.46029, 48.77111], [7.49308, 48.74996], [7.49568, 48.74701], [7.49732, 48.74514], [7.50052, 48.74152], [7.51181, 48.73119], [7.5119, 48.73112], [7.51403, 48.72965], [7.51411, 48.7296], [7.51959, 48.72627], [7.51964, 48.72625], [7.54901, 48.71587], [7.54916, 48.71584], [7.5624, 48.71379], [7.56474, 48.71345], [7.60239, 48.70796], [7.60252, 48.70794], [7.60654, 48.70728], [7.60664, 48.70727], [7.61903, 48.70419], [7.61912, 48.70417], [7.63558, 48.69784], [7.63571, 48.69779], [7.63607, 48.69766], [7.68644, 48.69138], [7.68677, 48.69136], [7.68873, 48.69125], [7.69419, 48.69093], [7.70507, 48.68976], [7.70616, 48.68938], [7.71196, 48.68553], [7.71205, 48.68546], [7.71301, 48.68461], [7.71451, 48.68263], [7.71472, 48.6822], [7.71534, 48.67933], [7.71591, 48.67622], [7.71653, 48.6738], [7.71654, 48.67376], [7.71658, 48.67361], [7.71684, 48.67246], [7.71708, 48.67155], [7.7172, 48.67089], [7.71721, 48.67081], [7.71728, 48.67038], [7.71719, 48.67082], [7.71718, 48.67089], [7.71678, 48.67245], [7.71643, 48.67359], [7.71712, 48.6709], [7.71714, 48.67083], [7.71737, 48.66952], [7.71742, 48.6692], [7.71766, 48.66771], [7.71768, 48.6676], [7.7177, 48.66749], [7.71909, 48.65814], [7.71942, 48.65631], [7.71951, 48.65573], [7.71961, 48.65507], [7.71963, 48.65497], [7.72112, 48.645], [7.72114, 48.6448], [7.72131, 48.64299], [7.72132, 48.6429], [7.72187, 48.63915], [7.7239, 48.62407], [7.72733, 48.60533], [7.72884, 48.60279], [7.72884, 48.60276], [7.72881, 48.60246], [7.72875, 48.60219], [7.72767, 48.60082], [7.7275, 48.60071], [7.72462, 48.59969], [7.72414, 48.59955], [7.72315, 48.59924], [7.72307, 48.59922], [7.72024, 48.59835], [7.72014, 48.59832], [7.71579, 48.59681], [7.71568, 48.59675], [7.71293, 48.59371], [7.71289, 48.59357], [7.71282, 48.59142], [7.71285, 48.59093], [7.71289, 48.59029], [7.71289, 48.59024], [7.71261, 48.58748], [7.71253, 48.5871], [7.70821, 48.57629], [7.70817, 48.5762], [7.70791, 48.57558], [7.70788, 48.5755], [7.70706, 48.57348], [7.70704, 48.57342], [7.70656, 48.57227], [7.70653, 48.5722], [7.70626, 48.57152], [7.70621, 48.57141], [7.70606, 48.57105], [7.70604, 48.571], [7.70519, 48.56893], [7.70502, 48.56852], [7.70444, 48.56693], [7.70438, 48.56656], [7.70432, 48.56625], [7.70428, 48.56604], [7.70328, 48.5634], [7.70319, 48.56323], [7.70232, 48.56147], [7.70229, 48.56141], [7.69998, 48.55642], [7.69997, 48.55639], [7.6978, 48.55152], [7.69757, 48.55096], [7.69707, 48.54977], [7.69694, 48.54947], [7.69693, 48.54944], [7.69463, 48.54397], [7.69462, 48.54395], [7.69217, 48.53813], [7.69103, 48.5354], [7.69069, 48.53459], [7.68978, 48.53244], [7.68512, 48.52132], [7.68507, 48.52122], [7.68144, 48.51257], [7.68138, 48.51244], [7.68109, 48.51173], [7.68104, 48.51163], [7.6745, 48.49603], [7.67353, 48.49374], [7.67102, 48.48775], [7.67097, 48.48763], [7.66339, 48.46957], [7.66335, 48.46946], [7.63371, 48.41555], [7.57864, 48.36986], [7.47286, 48.29463], [7.47282, 48.2946], [7.45189, 48.27296], [7.45175, 48.27269], [7.45109, 48.27145], [7.45105, 48.27138], [7.44613, 48.26453], [7.44559, 48.26381], [7.444, 48.26166], [7.44284, 48.26011], [7.44143, 48.25824], [7.44142, 48.25823], [7.42038, 48.2378], [7.42035, 48.23778], [7.40182, 48.2208], [7.40179, 48.22077], [7.37791, 48.19041], [7.37788, 48.19037], [7.3741, 48.18493], [7.37408, 48.18489], [7.37201, 48.18191], [7.37197, 48.18184], [7.36291, 48.16822], [7.36289, 48.16818], [7.36046, 48.16051], [7.36046, 48.16046], [7.3594, 48.15265], [7.35939, 48.15263], [7.35873, 48.14771], [7.35873, 48.14767], [7.35857, 48.14646], [7.35849, 48.14594], [7.35751, 48.13858], [7.35751, 48.13855], [7.35649, 48.13098], [7.35647, 48.13084], [7.35009, 48.08354], [7.35008, 48.0834], [7.34993, 48.08228], [7.34993, 48.08223], [7.34934, 48.07812], [7.34805, 48.07473], [7.34753, 48.07386], [7.34658, 48.07249], [7.34585, 48.07148], [7.34367, 48.06894], [7.33758, 48.06256], [7.33743, 48.0624], [7.32425, 48.04184], [7.32424, 48.04181], [7.32248, 48.02943], [7.32248, 48.02938], [7.32065, 48.01642], [7.32064, 48.01639], [7.32041, 48.01473], [7.32039, 48.01465], [7.32022, 48.0134], [7.3202, 48.01328], [7.31964, 48.00931], [7.31963, 48.00922], [7.3194, 48.00763], [7.3194, 48.00756], [7.31918, 48.00603], [7.31917, 48.00598], [7.31907, 48.00524], [7.31906, 48.00521], [7.318, 47.99768], [7.318, 47.99764], [7.31498, 47.9763], [7.31498, 47.97625], [7.31053, 47.94468], [7.31052, 47.94463], [7.31043, 47.94397], [7.31042, 47.94389], [7.30893, 47.93338], [7.30893, 47.93332], [7.30856, 47.93072], [7.30856, 47.93069], [7.30845, 47.92992], [7.30843, 47.92982], [7.30763, 47.92497], [7.30762, 47.92493], [7.30265, 47.9133], [7.3026, 47.9132], [7.29975, 47.90729], [7.29972, 47.90723], [7.29202, 47.89422], [7.29198, 47.89418], [7.28556, 47.88821], [7.28546, 47.88812], [7.26965, 47.86976], [7.26963, 47.86971], [7.26834, 47.86524], [7.26833, 47.86518], [7.26804, 47.86339], [7.26803, 47.86329], [7.26798, 47.86295], [7.26797, 47.86281], [7.26795, 47.86246], [7.26794, 47.86234], [7.26744, 47.85571], [7.26743, 47.85558], [7.26517, 47.82795], [7.26511, 47.8272], [7.26507, 47.8267], [7.26499, 47.82569], [7.26498, 47.82558], [7.26433, 47.81733], [7.26204, 47.78731], [7.26117, 47.77732], [7.26117, 47.77728], [7.26616, 47.76365], [7.26621, 47.76361], [7.27164, 47.76046], [7.27436, 47.75925], [7.27441, 47.75923], [7.27689, 47.75811], [7.27925, 47.75709], [7.28328, 47.75568], [7.28334, 47.75566], [7.28729, 47.75427], [7.28738, 47.75424], [7.28923, 47.75362], [7.28926, 47.7536], [7.28975, 47.75343], [7.29031, 47.75323], [7.32959, 47.76356], [7.32966, 47.76356], [7.33033, 47.76363], [7.33158, 47.76382], [7.33177, 47.76387], [7.33677, 47.76684], [7.33686, 47.76688], [7.34157, 47.76737], [7.34178, 47.76733], [7.34386, 47.76687], [7.34431, 47.76677], [7.34699, 47.76618], [7.34715, 47.76614], [7.35067, 47.76535], [7.35093, 47.76529], [7.35206, 47.76495], [7.35237, 47.76486], [7.35483, 47.7641], [7.35494, 47.76406], [7.35708, 47.76341], [7.35718, 47.76338], [7.35822, 47.76306], [7.35851, 47.76297], [7.36398, 47.76129], [7.36417, 47.76123], [7.36858, 47.75987], [7.36891, 47.75977], [7.37122, 47.75867], [7.37146, 47.75847], [7.37192, 47.75806], [7.37219, 47.75783], [7.37221, 47.75781], [7.37256, 47.75749], [7.37281, 47.7573], [7.37286, 47.75727], [7.37667, 47.75616], [7.37693, 47.75615], [7.3883, 47.75472], [7.38839, 47.75469], [7.39664, 47.75223], [7.3967, 47.75221], [7.39963, 47.75133], [7.3997, 47.75131], [7.40431, 47.74965], [7.40495, 47.74933], [7.40578, 47.74894], [7.40586, 47.7489], [7.40981, 47.74652], [7.4099, 47.74645], [7.41572, 47.74055], [7.41596, 47.74027], [7.4161, 47.74011], [7.41822, 47.7377], [7.44951, 47.66653], [7.44957, 47.66645], [7.45894, 47.65659], [7.45899, 47.65654], [7.46043, 47.6551], [7.46049, 47.65504], [7.48057, 47.63899], [7.48064, 47.63895], [7.48785, 47.63474], [7.48795, 47.63469], [7.49144, 47.63265], [7.49158, 47.63257], [7.49878, 47.62836], [7.49884, 47.62833], [7.5113, 47.62105], [7.51255, 47.62034], [7.51991, 47.61603], [7.51995, 47.616], [7.52332, 47.61404], [7.52336, 47.61402], [7.53214, 47.60888], [7.53225, 47.60882], [7.54223, 47.60233], [7.54231, 47.60227], [7.54238, 47.60222], [7.54245, 47.60217], [7.55282, 47.59247], [7.55303, 47.59227], [7.5553, 47.59016], [7.56111, 47.58474], [7.56122, 47.58464], [7.56415, 47.58176], [7.56421, 47.58169], [7.56568, 47.57991], [7.56575, 47.57984], [7.56757, 47.57755], [7.5679, 47.57714], [7.56808, 47.57691], [7.56963, 47.57483], [7.57311, 47.56795], [7.57328, 47.56614], [7.56659, 47.55839], [7.56621, 47.55708], [7.56716, 47.55061], [7.56897, 47.54836], [7.57562, 47.54532], [7.57774, 47.54549], [7.57783, 47.54551], [7.57816, 47.5456], [7.57885, 47.54584], [7.57945, 47.54613], [7.58466, 47.54744], [7.58837, 47.54643], [7.58879, 47.54631], [7.59177, 47.54578], [7.59222, 47.54569], [7.59366, 47.54537], [7.59411, 47.54529], [7.59452, 47.54521], [7.5972, 47.54438], [7.59884, 47.54401], [7.60141, 47.54373], [7.6072, 47.54268], [7.60767, 47.54256], [7.60859, 47.54238], [7.60907, 47.5423], [7.61079, 47.54204], [7.61106, 47.54201], [7.61556, 47.54253], [7.61577, 47.54259], [7.61852, 47.54281], [7.61881, 47.54277], [7.62182, 47.54194], [7.62304, 47.54153], [7.62531, 47.54085], [7.62557, 47.54081], [7.62821, 47.54039], [7.6302, 47.53985], [7.63536, 47.53804], [7.63576, 47.53791], [7.64149, 47.536], [7.64342, 47.53534], [7.64484, 47.53486], [7.64489, 47.53484], [7.64659, 47.5343], [7.64953, 47.53335], [7.65657, 47.53094], [7.65429, 47.53166], [7.65675, 47.53083], [7.65788, 47.53041], [7.66178, 47.52844], [7.66212, 47.5282], [7.66378, 47.5268], [7.66492, 47.52549], [7.66535, 47.52491], [7.71827, 47.49394], [7.72231, 47.49112], [7.72254, 47.49094], [7.72451, 47.48929], [7.72466, 47.48917], [7.72473, 47.48912], [7.72681, 47.48742], [7.72709, 47.48721], [7.72886, 47.48585], [7.73312, 47.48304], [7.73973, 47.47951], [7.74035, 47.47922], [7.74051, 47.47914], [7.7406, 47.4791], [7.74266, 47.47813], [7.74274, 47.47809], [7.74342, 47.47777], [7.74496, 47.47704], [7.74533, 47.47686], [7.74584, 47.47662], [7.74619, 47.47646], [7.75069, 47.47434], [7.75528, 47.47219], [7.75725, 47.47126], [7.75798, 47.47092], [7.76387, 47.46972], [7.76712, 47.46979], [7.77238, 47.46924], [7.77422, 47.46897], [7.77874, 47.4684], [7.80294, 47.46537], [7.80666, 47.46442], [7.80905, 47.46344], [7.81414, 47.46212], [7.81607, 47.46166], [7.81748, 47.46136], [7.81908, 47.46105], [7.81917, 47.46103], [7.82653, 47.46025], [7.82673, 47.46029], [7.82963, 47.46145], [7.82994, 47.46167], [7.83461, 47.46459], [7.83473, 47.46461], [7.83792, 47.46474], [7.84204, 47.46485], [7.8422, 47.46488], [7.8431, 47.4651], [7.85079, 47.46665], [7.8512, 47.46673], [7.85714, 47.46683], [7.85896, 47.46604], [7.85945, 47.4657], [7.85961, 47.46557], [7.87405, 47.45686], [7.8745, 47.45654], [7.87886, 47.45207], [7.87899, 47.45194], [7.88281, 47.44929], [7.88389, 47.44875], [7.8892, 47.44367], [7.89015, 47.44191], [7.89026, 47.44163], [7.89076, 47.44025], [7.89209, 47.43657], [7.89385, 47.43174], [7.89559, 47.42694], [7.89719, 47.42252], [7.89875, 47.41821], [7.89925, 47.41684], [7.90082, 47.41251], [7.90224, 47.40858], [7.90399, 47.40377], [7.90557, 47.3994], [7.90703, 47.39536], [7.90751, 47.39403], [7.90905, 47.38979], [7.91047, 47.38587], [7.91221, 47.38107], [7.91363, 47.37714], [7.91509, 47.37311], [7.91568, 47.37147], [7.916, 47.37058], [7.91627, 47.36985], [7.91642, 47.36942], [7.91713, 47.36745], [7.91756, 47.36619], [7.91775, 47.36558], [7.91832, 47.36408], [7.91818, 47.36229], [7.91708, 47.36047], [7.91426, 47.35841], [7.91343, 47.35798], [7.91127, 47.35688], [7.9094, 47.35562], [7.90901, 47.35512], [7.90877, 47.35473], [7.9081, 47.35199], [7.90776, 47.35039], [7.90759, 47.34979], [7.90747, 47.34924], [7.90767, 47.35028], [7.90804, 47.35199], [7.90837, 47.35385], [7.90857, 47.35451], [7.90874, 47.355], [7.90875, 47.35505], [7.91093, 47.35726], [7.91204, 47.35783], [7.91272, 47.35818], [7.91635, 47.35995], [7.92038, 47.36052], [7.92045, 47.36051], [7.92075, 47.36048], [7.92247, 47.36007], [7.92289, 47.35992], [7.92381, 47.3595], [7.92573, 47.35836], [7.92916, 47.3567], [7.93072, 47.35618], [7.94391, 47.35429], [7.94889, 47.35359], [7.96558, 47.35156], [7.97142, 47.35373], [7.9768, 47.35571], [7.97774, 47.35605], [7.97831, 47.35626], [7.98192, 47.35769], [7.99077, 47.36096], [7.99393, 47.36193], [8.01978, 47.38185], [8.02156, 47.38285], [8.02904, 47.38555], [8.03008, 47.38582], [8.03774, 47.38774], [8.03903, 47.38803], [8.03952, 47.38813], [8.04056, 47.38835], [8.04823, 47.39022], [8.05168, 47.39118], [8.05366, 47.39172], [8.05439, 47.39193], [8.05738, 47.39271], [8.05747, 47.39274], [8.0585, 47.39298], [8.06657, 47.39428], [8.07136, 47.39498], [8.07174, 47.39504], [8.07415, 47.39539], [8.07484, 47.39548], [8.08117, 47.39631], [8.08203, 47.39643], [8.08261, 47.39652], [8.08317, 47.3966], [8.0864, 47.39707], [8.11626, 47.40142], [8.1166, 47.40147], [8.1215, 47.40225], [8.12921, 47.4038], [8.1299, 47.4039], [8.13198, 47.40415], [8.13285, 47.40421], [8.13361, 47.40424], [8.13477, 47.40422], [8.13542, 47.40418], [8.14283, 47.40202], [8.14311, 47.40185], [8.1598, 47.39465], [8.16248, 47.3938], [8.16293, 47.39366], [8.16317, 47.39358], [8.16714, 47.39242], [8.17195, 47.39089], [8.1734, 47.39047], [8.17996, 47.39053], [8.18021, 47.39057], [8.1809, 47.39067], [8.18145, 47.39076], [8.19576, 47.39298], [8.19734, 47.39317], [8.20417, 47.39205], [8.20703, 47.38982], [8.21017, 47.38715], [8.21155, 47.386], [8.23339, 47.37438], [8.2335, 47.37432], [8.236, 47.37304], [8.25903, 47.35575], [8.25914, 47.35568], [8.26672, 47.35059], [8.26687, 47.35047], [8.26729, 47.35017], [8.27408, 47.34496], [8.27425, 47.34484], [8.30674, 47.31388], [8.30702, 47.31343], [8.30748, 47.31279], [8.31931, 47.30173], [8.31942, 47.30154], [8.32094, 47.2972], [8.32097, 47.29709], [8.33623, 47.28009], [8.33736, 47.27909], [8.33828, 47.27831], [8.34271, 47.27431], [8.34281, 47.27421], [8.34502, 47.2718], [8.34657, 47.27004], [8.34665, 47.26994], [8.36012, 47.25671], [8.36018, 47.25666], [8.36024, 47.25662], [8.37154, 47.24265], [8.37322, 47.2409], [8.38598, 47.22614], [8.39532, 47.21022], [8.39533, 47.21015], [8.39673, 47.19874], [8.39677, 47.1984], [8.39753, 47.19212], [8.39755, 47.19198], [8.39818, 47.18678], [8.39819, 47.1867], [8.39829, 47.18571], [8.39831, 47.18555], [8.40291, 47.1716], [8.40567, 47.16405], [8.40572, 47.16396], [8.40794, 47.1615], [8.40815, 47.16134], [8.41462, 47.15819], [8.41555, 47.15745], [8.41649, 47.14665], [8.41653, 47.14353], [8.41658, 47.14309], [8.4166, 47.14297], [8.41833, 47.14096], [8.41845, 47.1409], [8.41995, 47.14046], [8.42257, 47.1406], [8.42446, 47.14095], [8.4274, 47.14148], [8.42871, 47.14175], [8.43355, 47.14282], [8.43957, 47.14415], [8.44567, 47.14564], [8.44665, 47.14553], [8.45327, 47.11843], [8.45331, 47.11832], [8.45482, 47.10185], [8.4549, 47.10178], [8.45626, 47.09985], [8.45681, 47.09891], [8.45952, 47.0944], [8.45973, 47.09413], [8.45983, 47.09401], [8.46055, 47.09328], [8.46156, 47.09255], [8.46294, 47.09163], [8.46595, 47.08949], [8.46662, 47.08891], [8.46672, 47.08882], [8.46691, 47.08866], [8.46699, 47.08859], [8.46906, 47.08693], [8.47062, 47.08577], [8.47069, 47.08573], [8.47489, 47.08381], [8.47498, 47.08375], [8.48652, 47.07715], [8.48658, 47.0771], [8.48683, 47.07685], [8.48691, 47.07678], [8.49665, 47.07219], [8.49752, 47.07181], [8.50265, 47.06899], [8.50277, 47.0689], [8.50539, 47.06704], [8.50544, 47.06698], [8.51326, 47.05696], [8.5133, 47.0569], [8.51807, 47.05393], [8.51818, 47.05389], [8.52231, 47.05274], [8.52481, 47.05235], [8.54471, 47.04911], [8.54493, 47.04909], [8.5456, 47.04906], [8.54592, 47.04904], [8.54595, 47.04904], [8.54952, 47.04892], [8.5536, 47.04873], [8.5577, 47.04854], [8.5579, 47.04853], [8.55891, 47.04849], [8.55952, 47.04846], [8.57414, 47.05156], [8.5743, 47.05149], [8.58066, 47.04692], [8.5887, 47.04889], [8.60002, 47.05046], [8.60013, 47.05047], [8.6057, 47.04889], [8.60598, 47.04866], [8.60954, 47.04577], [8.60973, 47.04561], [8.61128, 47.0444], [8.61138, 47.04432], [8.61752, 47.03944], [8.62266, 47.03423], [8.62272, 47.0341], [8.62589, 47.03056], [8.62628, 47.03041], [8.62864, 47.02958], [8.62873, 47.02954], [8.63007, 47.02869], [8.63097, 47.02137], [8.62995, 47.02011], [8.62986, 47.01999], [8.62885, 47.0187], [8.62873, 47.01853], [8.62843, 47.01814], [8.62694, 47.01636], [8.62488, 47.0142], [8.62279, 47.01211], [8.62233, 47.01164], [8.62084, 47.01004], [8.61881, 47.00791], [8.6167, 47.00572], [8.61661, 47.00563], [8.61275, 47.00164], [8.60922, 46.99791], [8.60919, 46.99787], [8.60799, 46.9955], [8.60801, 46.99445], [8.61075, 46.98992], [8.61163, 46.98804], [8.61212, 46.98292], [8.6115, 46.97919], [8.61151, 46.97914], [8.61154, 46.97901], [8.61147, 46.97728], [8.61137, 46.97633], [8.61129, 46.97586], [8.61111, 46.97523], [8.61099, 46.97316], [8.61107, 46.97285], [8.61144, 46.97214], [8.61192, 46.97158], [8.61964, 46.95479], [8.61968, 46.95468], [8.62082, 46.95301], [8.62085, 46.95296], [8.62108, 46.9523], [8.62073, 46.95002], [8.62063, 46.9495], [8.6206, 46.94932], [8.62066, 46.94856], [8.62069, 46.94845], [8.62129, 46.94728], [8.61655, 46.93965], [8.61572, 46.93831], [8.61532, 46.93789], [8.61401, 46.93655], [8.61336, 46.93532], [8.61325, 46.93505], [8.61306, 46.93431], [8.61301, 46.9341], [8.613, 46.93406], [8.6127, 46.93308], [8.61219, 46.93158], [8.6119, 46.93045], [8.61191, 46.92981], [8.62044, 46.92172], [8.62082, 46.92141], [8.62092, 46.92131], [8.6217, 46.92028], [8.62177, 46.92019], [8.62226, 46.9195], [8.62238, 46.91932], [8.62242, 46.91926], [8.62318, 46.91823], [8.62355, 46.91771], [8.62361, 46.91764], [8.62402, 46.91685], [8.62401, 46.91556], [8.6235, 46.91475], [8.62249, 46.91382], [8.62251, 46.90995], [8.62256, 46.90989], [8.62489, 46.90375], [8.62484, 46.9036], [8.62444, 46.89799], [8.62512, 46.89504], [8.62513, 46.89501], [8.62517, 46.89487], [8.62518, 46.89484], [8.6257, 46.89327], [8.62664, 46.89039], [8.63006, 46.87994], [8.6305, 46.87849], [8.63219, 46.87307], [8.63236, 46.87257], [8.63281, 46.8713], [8.63382, 46.86827], [8.63527, 46.86374], [8.63533, 46.86353], [8.63602, 46.86146], [8.63618, 46.86097], [8.63664, 46.85959], [8.63671, 46.85936], [8.63925, 46.85235], [8.6446, 46.83953], [8.64521, 46.8383], [8.64657, 46.83554], [8.81058, 46.49787], [8.81094, 46.49747], [8.92521, 46.37272], [8.93023, 46.36918], [8.95403, 46.3579], [8.95519, 46.35724], [8.95617, 46.35665], [8.95858, 46.355], [8.96714, 46.34572], [8.97153, 46.3393], [8.97927, 46.32831], [8.9798, 46.32751], [8.9799, 46.32735], [8.98047, 46.3265], [8.98311, 46.32168], [8.98644, 46.31025], [8.98657, 46.3101], [8.99176, 46.30391], [8.9918, 46.30382], [8.99355, 46.30037], [8.99826, 46.29183], [9.01616, 46.26012], [9.01652, 46.2569], [9.01692, 46.25318], [9.01967, 46.24805], [9.04097, 46.22845], [9.04112, 46.22655], [9.04114, 46.22632], [9.04132, 46.22415], [9.04151, 46.2219], [9.04166, 46.22018], [9.0417, 46.21967], [9.04177, 46.21883], [9.04038, 46.21558], [9.04029, 46.21544], [9.03978, 46.21319], [9.04027, 46.21163], [9.04031, 46.2115], [9.04057, 46.21074], [9.03578, 46.20048], [9.03541, 46.20018], [9.03318, 46.1983], [9.03219, 46.19752], [9.02761, 46.19366], [9.0275, 46.19357], [9.02715, 46.19326], [9.0262, 46.19243], [9.02619, 46.19241], [9.02415, 46.19022], [9.02359, 46.18933], [9.02352, 46.18922], [9.02274, 46.18799], [9.02256, 46.18775], [9.01962, 46.18518], [9.0192, 46.18484], [9.01828, 46.1841], [9.01697, 46.18303], [9.01119, 46.17864], [9.00831, 46.17693], [9.00778, 46.1766], [9.00145, 46.17272], [8.99998, 46.17173], [8.99815, 46.17051], [8.99777, 46.17027], [8.99642, 46.16951], [8.99402, 46.16823], [8.99309, 46.16773], [8.99143, 46.16684], [8.99108, 46.16665], [8.98976, 46.16594], [8.98809, 46.16484], [8.98602, 46.15617], [8.98777, 46.15061], [8.94623, 46.04594], [8.94219, 46.0351], [8.93783, 46.0304], [8.93481, 46.02726], [8.93477, 46.02686], [8.93469, 46.0257], [8.93467, 46.02541], [8.93465, 46.02419], [8.93414, 46.02224], [8.93374, 46.01646], [8.94178, 46.01043], [8.94325, 46.01011], [8.94451, 46.00961], [8.94544, 46.00881], [8.94559, 46.00857], [8.94671, 46.00513], [8.9472, 46.00351], [8.94722, 46.00344], [8.94751, 46.00243], [8.94753, 46.00228], [8.94518, 45.99959], [8.94477, 45.99946], [8.94068, 45.99066], [8.94111, 45.99004], [8.94712, 45.98945], [8.94728, 45.98948], [8.95091, 45.98913], [8.951, 45.98909], [8.95278, 45.98817], [8.95533, 45.98188], [8.95546, 45.9804], [8.95557, 45.97991], [8.94996, 45.97093], [8.94902, 45.96947], [8.94819, 45.96756], [8.94816, 45.96744], [8.94728, 45.96122], [8.94697, 45.95946], [8.95475, 45.95381], [8.95633, 45.95367], [8.95644, 45.95366], [8.95753, 45.95354], [8.95861, 45.95345], [8.96322, 45.95269], [8.96395, 45.95234], [8.96447, 45.95202], [8.96482, 45.95177], [8.96534, 45.94371], [8.96795, 45.93895], [8.96986, 45.93739], [8.96997, 45.93726], [8.97081, 45.93531], [8.97143, 45.93431], [8.97162, 45.93412], [8.97168, 45.93406], [8.97215, 45.93372], [8.97604, 45.93116], [8.97622, 45.93098], [8.97663, 45.93048], [8.97685, 45.93011], [8.97761, 45.92852], [8.97781, 45.9281], [8.97785, 45.928], [8.979, 45.92578], [8.9791, 45.92563], [8.9815, 45.90674], [8.98042, 45.90536], [8.97997, 45.90462], [8.97478, 45.89605], [8.98303, 45.87747], [8.98305, 45.87732], [8.98313, 45.87648], [8.98262, 45.87289], [8.98183, 45.87192], [8.98137, 45.87153], [8.9758, 45.86685], [8.97507, 45.86612], [8.9734, 45.86494], [8.9733, 45.86488], [8.97282, 45.86456], [8.97466, 45.85787], [8.97533, 45.8572], [8.98413, 45.84895], [8.9843, 45.84892], [8.99842, 45.84899], [9.00209, 45.8486], [9.00222, 45.84854], [9.00237, 45.84845], [9.00293, 45.84809], [9.00306, 45.84799], [9.00785, 45.84494], [9.01007, 45.84406], [9.01058, 45.84374], [9.0202, 45.83773], [9.02036, 45.83763], [9.02128, 45.83704], [9.02367, 45.83551], [9.0253, 45.83455], [9.02617, 45.83409], [9.02637, 45.83401], [9.02744, 45.83357], [9.02894, 45.83295], [9.0295, 45.83272], [9.03437, 45.83072], [9.03461, 45.83064], [9.03565, 45.8303], [9.03576, 45.83027], [9.03624, 45.83011], [9.03768, 45.82966], [9.03825, 45.82948], [9.04005, 45.8289], [9.04133, 45.82839], [9.06124, 45.81816], [9.06844, 45.8122], [9.06907, 45.81175], [9.07048, 45.81071], [9.0714, 45.80992], [9.07442, 45.80692], [9.07658, 45.80499], [9.0808, 45.78417], [9.07867, 45.78245], [9.07701, 45.78112], [9.07332, 45.77728], [9.0809, 45.76644], [9.0817, 45.76568], [9.08284, 45.7646], [9.08519, 45.75382], [9.08517, 45.75374], [9.08277, 45.74608], [9.08274, 45.74599], [9.08202, 45.74243], [9.08203, 45.74228], [9.08213, 45.74145], [9.08291, 45.73937], [9.08627, 45.736], [9.08952, 45.7344], [9.09161, 45.73301], [9.09175, 45.73289], [9.09371, 45.73056], [9.09377, 45.73045], [9.09459, 45.72782], [9.0946, 45.7277], [9.09489, 45.72585], [9.09491, 45.72579], [9.09942, 45.71684], [9.099, 45.71491], [9.09755, 45.711], [9.09753, 45.71091], [9.09928, 45.70344], [9.09934, 45.70336], [9.10519, 45.69835], [9.10779, 45.69681], [9.12522, 45.68318], [9.12526, 45.68309], [9.13315, 45.6691], [9.13413, 45.66737], [9.13606, 45.66403], [9.13615, 45.66389], [9.14433, 45.6578], [9.14448, 45.65774], [9.14766, 45.65674], [9.14805, 45.65665], [9.15078, 45.65617], [9.15097, 45.65615], [9.19867, 45.64844], [9.20148, 45.64688], [9.20289, 45.64598], [9.20469, 45.64484], [9.20629, 45.64375], [9.20773, 45.64241], [9.20794, 45.64217], [9.20817, 45.64189], [9.2139, 45.63014], [9.21395, 45.63003], [9.21444, 45.62897], [9.21823, 45.62075], [9.21922, 45.6186], [9.21926, 45.6185], [9.22365, 45.61362], [9.22408, 45.61333], [9.23169, 45.60844], [9.2318, 45.60837], [9.23454, 45.60657], [9.23668, 45.60519], [9.24105, 45.60241], [9.24122, 45.6023], [9.25806, 45.59148], [9.25882, 45.591], [9.27078, 45.58329], [9.27353, 45.5799], [9.27356, 45.57897], [9.27171, 45.5757], [9.27104, 45.57467], [9.27069, 45.57414], [9.27047, 45.57382], [9.26456, 45.56591], [9.26049, 45.56158], [9.25985, 45.56089], [9.24093, 45.54261], [9.23777, 45.53953], [9.22871, 45.53072], [9.22348, 45.52417], [9.21672, 45.51514], [9.21441, 45.51211], [9.21418, 45.5118], [9.21325, 45.5106], [9.21201, 45.50877], [9.21179, 45.50723], [9.21526, 45.50266], [9.21665, 45.50142], [9.2174, 45.50075], [9.22023, 45.49856], [9.22397, 45.49708], [9.22613, 45.49633], [9.22624, 45.49628], [9.22833, 45.49503], [9.22847, 45.49491], [9.23044, 45.49272], [9.23076, 45.49235], [9.23483, 45.48801], [9.23515, 45.4877], [9.23571, 45.48726], [9.23832, 45.48368], [9.23839, 45.48334], [9.23841, 45.48325], [9.24176, 45.47245], [9.24188, 45.47239], [9.24539, 45.47158], [9.24548, 45.47157], [9.25034, 45.4725], [9.2537, 45.4728], [9.25468, 45.47275], [9.25491, 45.47275], [9.25515, 45.47277], [9.25561, 45.4728], [9.25514, 45.47273], [9.25491, 45.47269], [9.2533, 45.47242], [9.24045, 45.46977], [9.23985, 45.46949], [9.23808, 45.46797], [9.2377, 45.46761], [9.23705, 45.4652], [9.23747, 45.4622], [9.23746, 45.46179], [9.23671, 45.45076], [9.23602, 45.44157], [9.23723, 45.43846], [9.23809, 45.43613], [9.23826, 45.43568], [9.23969, 45.43179], [9.24026, 45.43019], [9.24043, 45.42972], [9.24085, 45.42853], [9.24353, 45.42457], [9.24445, 45.42377], [9.24855, 45.42145], [9.24895, 45.42123], [9.24668, 45.42227], [9.24484, 45.42315], [9.24416, 45.42356], [9.24248, 45.42515], [9.24282, 45.42463], [9.24524, 45.41835], [9.24536, 45.41603], [9.24501, 45.4129], [9.24492, 45.41256], [9.2447, 45.412], [9.22923, 45.37197], [9.22918, 45.3717], [9.22636, 45.36535], [9.2262, 45.36518], [9.22479, 45.36361], [9.22238, 45.36091], [9.22051, 45.35877], [9.20956, 45.34644], [9.20934, 45.34619], [9.2085, 45.34526], [9.20842, 45.34515], [9.20441, 45.34065], [9.20268, 45.3387], [9.19649, 45.33066], [9.18568, 45.31182], [9.1856, 45.31168], [9.18286, 45.3069], [9.18277, 45.30673], [9.17863, 45.2995], [9.17846, 45.29921], [9.16318, 45.27259], [9.16309, 45.27244], [9.15433, 45.2565], [9.15024, 45.21021], [9.1498, 45.20669], [9.14955, 45.20542], [9.15078, 45.19395], [9.15034, 45.19355], [9.1469, 45.19067], [9.14634, 45.19018], [9.14612, 45.19], [9.14317, 45.18821], [9.14264, 45.18792], [9.14236, 45.18778], [9.14206, 45.18765], [9.14192, 45.18758], [9.14153, 45.18743], [9.14079, 45.18718], [9.13652, 45.18451], [9.13471, 45.18256], [9.13461, 45.18246], [9.13208, 45.17999], [9.13201, 45.17992], [9.12984, 45.1779], [9.12799, 45.17608], [9.12779, 45.17586], [9.12174, 45.16751], [9.12169, 45.16742], [9.11537, 45.14491], [9.11426, 45.11098], [9.11438, 45.11026], [9.11534, 45.10342], [9.11544, 45.10271], [9.11065, 45.08629], [9.10908, 45.08497], [9.10882, 45.08476], [9.09731, 45.07494], [9.0971, 45.07477], [9.07453, 45.0553], [9.06795, 45.04881], [9.03997, 45.02089], [9.03931, 45.02024], [9.02953, 45.01048], [9.0229, 45.00385], [9.01644, 44.99929], [9.00475, 44.99737], [8.99308, 44.99417], [8.99011, 44.99289], [8.9847, 44.99033], [8.98314, 44.9896], [8.98295, 44.98951], [8.96299, 44.98008], [8.94965, 44.97378], [8.94952, 44.97372], [8.94801, 44.97301], [8.94783, 44.97292], [8.9396, 44.96902], [8.93945, 44.96895], [8.93746, 44.96802], [8.93685, 44.96774], [8.92178, 44.95412], [8.9217, 44.95403], [8.89661, 44.92928], [8.89646, 44.92913], [8.89387, 44.92658], [8.89375, 44.92646], [8.88049, 44.91335], [8.87064, 44.90516], [8.86948, 44.90437], [8.86919, 44.90418], [8.86877, 44.9039], [8.86859, 44.9038], [8.86824, 44.90359], [8.86615, 44.90249], [8.86521, 44.902], [8.86182, 44.90014], [8.8576, 44.8977], [8.85727, 44.89749], [8.85678, 44.89717], [8.85558, 44.89632], [8.85526, 44.89607], [8.85422, 44.89498], [8.85411, 44.89485], [8.85318, 44.89336], [8.85297, 44.89291], [8.8526, 44.89171], [8.85258, 44.89158], [8.85249, 44.89007], [8.85253, 44.88895], [8.85254, 44.88882], [8.853, 44.87753], [8.85301, 44.87739], [8.85307, 44.87578], [8.85335, 44.86898], [8.85335, 44.86882], [8.85336, 44.8686], [8.85336, 44.86848], [8.85357, 44.86356], [8.85358, 44.86345], [8.85312, 44.84936], [8.85312, 44.8493], [8.85269, 44.84629], [8.85266, 44.84611], [8.85206, 44.84183], [8.85204, 44.84171], [8.85104, 44.83466], [8.85103, 44.83455], [8.85051, 44.83092], [8.8505, 44.83078], [8.85048, 44.8275], [8.85051, 44.82737], [8.85399, 44.81766], [8.85399, 44.81754], [8.85406, 44.81614], [8.85409, 44.81566], [8.85571, 44.81036], [8.86395, 44.77195], [8.86371, 44.77152], [8.86327, 44.77073], [8.86018, 44.76519], [8.86013, 44.7651], [8.85977, 44.76444], [8.85951, 44.76398], [8.85809, 44.75865], [8.86639, 44.74386], [8.86703, 44.74278], [8.86748, 44.74196], [8.8688, 44.73652], [8.8688, 44.73623], [8.86537, 44.71995], [8.86534, 44.71981], [8.8645, 44.71595], [8.86449, 44.71585], [8.86439, 44.71404], [8.8644, 44.71388], [8.86442, 44.71355], [8.86445, 44.71303], [8.86452, 44.7121], [8.86482, 44.70872], [8.86877, 44.7028], [8.86883, 44.70273], [8.87032, 44.70118], [8.87051, 44.701], [8.87299, 44.69934], [8.87313, 44.69926], [8.87752, 44.69679], [8.88179, 44.69446], [8.88338, 44.69359], [8.88531, 44.69249], [8.8891, 44.68999], [8.89639, 44.67093], [8.89642, 44.6708], [8.89734, 44.6689], [8.89741, 44.66881], [8.91128, 44.66113], [8.91158, 44.66104], [8.91167, 44.66101], [8.91968, 44.65852], [8.92061, 44.65827], [8.92118, 44.65815], [8.92476, 44.65811], [8.92497, 44.65814], [8.92719, 44.65866], [8.92911, 44.66006], [8.9297, 44.66131], [8.92972, 44.66141], [8.93111, 44.66437], [8.93149, 44.66464], [8.93456, 44.66552], [8.93465, 44.66552], [8.93787, 44.66512], [8.938, 44.6651], [8.94177, 44.66424], [8.9419, 44.6642], [8.94297, 44.66374], [8.94428, 44.66297], [8.94711, 44.66068], [8.94725, 44.66055], [8.94787, 44.65982], [8.94804, 44.65946], [8.94654, 44.65496], [8.9462, 44.65395], [8.94679, 44.65195], [8.94687, 44.65185], [8.94787, 44.65099], [8.94799, 44.65092], [8.95167, 44.64993], [8.95178, 44.64991], [8.95708, 44.64511], [8.9529, 44.64029], [8.94953, 44.63483], [8.94898, 44.63392], [8.94765, 44.62618], [8.94749, 44.62522], [8.9467, 44.6206], [8.94668, 44.6205], [8.94654, 44.61978], [8.94751, 44.61704], [8.94789, 44.61669], [8.95432, 44.61377], [8.95496, 44.61317], [8.95652, 44.61022], [8.948, 44.60302], [8.94176, 44.59661], [8.93815, 44.58953], [8.93816, 44.58913], [8.93834, 44.58779], [8.93919, 44.58192], [8.9436, 44.57552], [8.9456, 44.57345], [8.94583, 44.57317], [8.94634, 44.57256], [8.94692, 44.57186], [8.93915, 44.54397], [8.93721, 44.54104], [8.9363, 44.54037], [8.93304, 44.53955], [8.93289, 44.53952], [8.9309, 44.53891], [8.93085, 44.53889], [8.92633, 44.53741], [8.92594, 44.53718], [8.92003, 44.53138], [8.91843, 44.5305], [8.91739, 44.52967], [8.91722, 44.52949], [8.91454, 44.52221], [8.91454, 44.52172], [8.91452, 44.52098], [8.91445, 44.51918], [8.91443, 44.51869], [8.91441, 44.51816], [8.91469, 44.51474], [8.9147, 44.51452], [8.91243, 44.50984], [8.91234, 44.50969], [8.91226, 44.50956], [8.91163, 44.50866], [8.91116, 44.50808], [8.91099, 44.50787], [8.91048, 44.50724], [8.91027, 44.50696], [8.90464, 44.49862], [8.90454, 44.49802], [8.90542, 44.49526], [8.90561, 44.49419], [8.90554, 44.49343], [8.90168, 44.48928], [8.90057, 44.48837], [8.90036, 44.48816], [8.89952, 44.48373], [8.90001, 44.48155], [8.90089, 44.47758], [8.90092, 44.47743], [8.90194, 44.47297], [8.90199, 44.47276], [8.90198, 44.46771], [8.90167, 44.46636], [8.90047, 44.461], [8.90004, 44.45895], [8.89747, 44.45548], [8.89733, 44.45536], [8.8911, 44.44578], [8.89109, 44.44572], [8.89088, 44.441], [8.89088, 44.43938], [8.89106, 44.43467], [8.89109, 44.43441], [8.89146, 44.43325], [8.89147, 44.431], [8.89137, 44.43058], [8.89119, 44.42953], [8.89051, 44.4268], [8.89031, 44.42636], [8.89006, 44.42591], [8.8894, 44.42479], [8.88608, 44.4145], [8.88676, 44.41356], [8.88872, 44.41196], [8.89082, 44.411], [8.89214, 44.41056], [8.89239, 44.41048], [8.89321, 44.41021], [8.9021, 44.41001], [8.9094, 44.41326], [8.91276, 44.41476], [8.91302, 44.41492], [8.91368, 44.4153]]}}